start=new Date('2021-11-12T00:00:00.000Z').valueOf();
sats=[{"RCS_SIZE":"LARGE","EPOCH":"2021-11-11T20:47:47.240736","TIME_SYSTEM":"UTC","INCLINATION":"53.0545","PERIOD":"95.593","ELEMENT_SET_NO":"999","SEMIMAJOR_AXIS":"6925.386","APOAPSIS":"548.431","REV_AT_EPOCH":"5415","RA_OF_ASC_NODE":"169.2230","SITE":"AFETR","MEAN_MOTION_DDOT":"0.0000000000000","ARG_OF_PERICENTER":"74.9485","REF_FRAME":"TEME","MEAN_MOTION":"15.06387796","OBJECT_NAME":"STARLINK-1879","DECAY_DATE":null,"ECCENTRICITY":"0.00017040","CENTER_NAME":"EARTH","MEAN_MOTION_DOT":"0.00001439","LAUNCH_DATE":"2020-11-25","CLASSIFICATION_TYPE":"U","NORAD_CAT_ID":"47164","MEAN_ANOMALY":"285.1693","FILE":"3212485","EPHEMERIS_TYPE":"0","OBJECT_ID":"2020-088AU","TLE_LINE1":"1 47164U 20088AU  21315.86651899  .00001439  00000-0  11551-3 0  9997","GP_ID":"189527060","OBJECT_TYPE":"PAYLOAD","PERIAPSIS":"546.071","TLE_LINE2":"2 47164  53.0545 169.2230 0001704  74.9485 285.1693 15.06387796 54159","MEAN_ELEMENT_THEORY":"SGP4","BSTAR":"0.00011551000000","COUNTRY_CODE":"US"},{"MEAN_ELEMENT_THEORY":"SGP4","BSTAR":"-0.00027797000000","PERIAPSIS":"546.230","TLE_LINE2":"2 47165  53.0535 188.9084 0001521  64.2113 295.9033 15.06377211 53888","COUNTRY_CODE":"US","TLE_LINE1":"1 47165U 20088AV  21315.93838268 -.00004417  00000-0 -27797-3 0  9993","GP_ID":"189527311","OBJECT_TYPE":"PAYLOAD","NORAD_CAT_ID":"47165","MEAN_ANOMALY":"295.9033","FILE":"3212485","CLASSIFICATION_TYPE":"U","OBJECT_ID":"2020-088AV","EPHEMERIS_TYPE":"0","LAUNCH_DATE":"2020-11-25","MEAN_MOTION_DOT":"-0.00004417","CENTER_NAME":"EARTH","MEAN_MOTION_DDOT":"0.0000000000000","ARG_OF_PERICENTER":"64.2113","MEAN_MOTION":"15.06377211","REF_FRAME":"TEME","SITE":"AFETR","RA_OF_ASC_NODE":"188.9084","DECAY_DATE":null,"ECCENTRICITY":"0.00015210","OBJECT_NAME":"STARLINK-1880","PERIOD":"95.594","ELEMENT_SET_NO":"999","SEMIMAJOR_AXIS":"6925.418","APOAPSIS":"548.337","REV_AT_EPOCH":"5388","RCS_SIZE":"LARGE","EPOCH":"2021-11-11T22:31:16.263552","TIME_SYSTEM":"UTC","INCLINATION":"53.0535"},{"LAUNCH_DATE":"2020-11-25","OBJECT_ID":"2020-088AW","EPHEMERIS_TYPE":"0","NORAD_CAT_ID":"47166","MEAN_ANOMALY":"286.6086","FILE":"3212485","CLASSIFICATION_TYPE":"U","OBJECT_TYPE":"PAYLOAD","TLE_LINE1":"1 47166U 20088AW  21315.82327274  .00008546  00000-0  29368-3 0  9993","GP_ID":"189526059","COUNTRY_CODE":"US","MEAN_ELEMENT_THEORY":"SGP4","BSTAR":"0.00029368000000","PERIAPSIS":"471.987","TLE_LINE2":"2 47166  53.0481 150.1798 0001528  73.5081 286.6086 15.30931506 54422","INCLINATION":"53.0481","TIME_SYSTEM":"UTC","RCS_SIZE":"LARGE","EPOCH":"2021-11-11T19:45:30.764736","ELEMENT_SET_NO":"999","SEMIMAJOR_AXIS":"6851.169","REV_AT_EPOCH":"5442","APOAPSIS":"474.081","PERIOD":"94.060","DECAY_DATE":null,"OBJECT_NAME":"STARLINK-1881","ECCENTRICITY":"0.00015280","ARG_OF_PERICENTER":"73.5081","MEAN_MOTION_DDOT":"0.0000000000000","MEAN_MOTION":"15.30931506","REF_FRAME":"TEME","SITE":"AFETR","RA_OF_ASC_NODE":"150.1798","MEAN_MOTION_DOT":"0.00008546","CENTER_NAME":"EARTH"},{"OBJECT_TYPE":"PAYLOAD","GP_ID":"189526309","TLE_LINE1":"1 47167U 20088AX  21315.92363583  .00001216  00000-0  10066-3 0  9990","COUNTRY_CODE":"US","MEAN_ELEMENT_THEORY":"SGP4","BSTAR":"0.00010066000000","TLE_LINE2":"2 47167  53.0530 188.9849 0006890  19.7896 340.3359 15.06395888 53887","PERIAPSIS":"542.455","LAUNCH_DATE":"2020-11-25","OBJECT_ID":"2020-088AX","EPHEMERIS_TYPE":"0","FILE":"3212485","NORAD_CAT_ID":"47167","MEAN_ANOMALY":"340.3359","CLASSIFICATION_TYPE":"U","DECAY_DATE":null,"OBJECT_NAME":"STARLINK-1884","ECCENTRICITY":"0.00068900","MEAN_MOTION":"15.06395888","REF_FRAME":"TEME","ARG_OF_PERICENTER":"19.7896","MEAN_MOTION_DDOT":"0.0000000000000","RA_OF_ASC_NODE":"188.9849","SITE":"AFETR","MEAN_MOTION_DOT":"0.00001216","CENTER_NAME":"EARTH","INCLINATION":"53.0530","TIME_SYSTEM":"UTC","EPOCH":"2021-11-11T22:10:02.135712","RCS_SIZE":"LARGE","REV_AT_EPOCH":"5388","APOAPSIS":"551.998","ELEMENT_SET_NO":"999","SEMIMAJOR_AXIS":"6925.361","PERIOD":"95.592"},{"MEAN_MOTION_DOT":"-0.00000358","CENTER_NAME":"EARTH","REF_FRAME":"TEME","MEAN_MOTION":"15.06398591","ARG_OF_PERICENTER":"68.3762","MEAN_MOTION_DDOT":"0.0000000000000","RA_OF_ASC_NODE":"188.9940","SITE":"AFETR","DECAY_DATE":null,"OBJECT_NAME":"STARLINK-1885","ECCENTRICITY":"0.00014510","PERIOD":"95.592","REV_AT_EPOCH":"5388","APOAPSIS":"548.223","ELEMENT_SET_NO":"999","SEMIMAJOR_AXIS":"6925.353","EPOCH":"2021-11-11T22:04:42.347712","RCS_SIZE":"LARGE","TIME_SYSTEM":"UTC","INCLINATION":"53.0529","MEAN_ELEMENT_THEORY":"SGP4","BSTAR":"-0.00000514150000","TLE_LINE2":"2 47168  53.0529 188.9940 0001451  68.3762 291.7382 15.06398591 53887","PERIAPSIS":"546.213","COUNTRY_CODE":"US","GP_ID":"189527558","TLE_LINE1":"1 47168U 20088AY  21315.91993458 -.00000358  00000-0 -51415-5 0  9993","OBJECT_TYPE":"PAYLOAD","FILE":"3212485","MEAN_ANOMALY":"291.7382","NORAD_CAT_ID":"47168","CLASSIFICATION_TYPE":"U","OBJECT_ID":"2020-088AY","EPHEMERIS_TYPE":"0","LAUNCH_DATE":"2020-11-25"},{"CENTER_NAME":"EARTH","MEAN_MOTION_DOT":"0.00001778","SITE":"AFETR","RA_OF_ASC_NODE":"189.0471","MEAN_MOTION":"15.06403922","REF_FRAME":"TEME","MEAN_MOTION_DDOT":"0.0000000000000","ARG_OF_PERICENTER":"61.5275","DECAY_DATE":null,"ECCENTRICITY":"0.00016310","OBJECT_NAME":"STARLINK-1887","PERIOD":"95.592","REV_AT_EPOCH":"5388","APOAPSIS":"548.331","ELEMENT_SET_NO":"999","SEMIMAJOR_AXIS":"6925.337","EPOCH":"2021-11-11T21:48:45.957600","RCS_SIZE":"LARGE","TIME_SYSTEM":"UTC","INCLINATION":"53.0526","TLE_LINE2":"2 47170  53.0526 189.0471 0001631  61.5275 298.5878 15.06403922 53882","PERIAPSIS":"546.072","BSTAR":"0.00013824000000","MEAN_ELEMENT_THEORY":"SGP4","COUNTRY_CODE":"US","GP_ID":"189527809","TLE_LINE1":"1 47170U 20088BA  21315.90886525  .00001778  00000-0  13824-3 0  9996","OBJECT_TYPE":"PAYLOAD","CLASSIFICATION_TYPE":"U","FILE":"3212485","MEAN_ANOMALY":"298.5878","NORAD_CAT_ID":"47170","EPHEMERIS_TYPE":"0","OBJECT_ID":"2020-088BA","LAUNCH_DATE":"2020-11-25"},{"LAUNCH_DATE":"2020-11-25","EPHEMERIS_TYPE":"0","OBJECT_ID":"2020-088BB","CLASSIFICATION_TYPE":"U","FILE":"3212485","MEAN_ANOMALY":"289.3832","NORAD_CAT_ID":"47171","OBJECT_TYPE":"PAYLOAD","GP_ID":"189526557","TLE_LINE1":"1 47171U 20088BB  21315.86189057  .00001719  00000-0  13427-3 0  9992","COUNTRY_CODE":"US","TLE_LINE2":"2 47171  53.0550 179.2574 0001634  70.7334 289.3832 15.06395388 54016","PERIAPSIS":"546.096","MEAN_ELEMENT_THEORY":"SGP4","BSTAR":"0.00013427000000","TIME_SYSTEM":"UTC","INCLINATION":"53.0550","EPOCH":"2021-11-11T20:41:07.345248","RCS_SIZE":"LARGE","REV_AT_EPOCH":"5401","APOAPSIS":"548.359","SEMIMAJOR_AXIS":"6925.363","ELEMENT_SET_NO":"999","PERIOD":"95.592","DECAY_DATE":null,"OBJECT_NAME":"STARLINK-1888","ECCENTRICITY":"0.00016340","RA_OF_ASC_NODE":"179.2574","SITE":"AFETR","MEAN_MOTION":"15.06395388","REF_FRAME":"TEME","ARG_OF_PERICENTER":"70.7334","MEAN_MOTION_DDOT":"0.0000000000000","CENTER_NAME":"EARTH","MEAN_MOTION_DOT":"0.00001719"},{"ARG_OF_PERICENTER":"100.1627","MEAN_MOTION_DDOT":"0.0000000000000","MEAN_MOTION":"15.58996847","REF_FRAME":"TEME","SITE":"AFETR","RA_OF_ASC_NODE":"173.1213","ECCENTRICITY":"0.00004740","DECAY_DATE":null,"OBJECT_NAME":"STARLINK-1889","MEAN_MOTION_DOT":"0.00037099","CENTER_NAME":"EARTH","RCS_SIZE":"LARGE","EPOCH":"2021-11-11T21:22:45.938208","INCLINATION":"53.0538","TIME_SYSTEM":"UTC","PERIOD":"92.367","ELEMENT_SET_NO":"999","SEMIMAJOR_AXIS":"6768.696","REV_AT_EPOCH":"5410","APOAPSIS":"390.882","TLE_LINE1":"1 47172U 20088BC  21315.89080947  .00037099  00000-0  47245-3 0  9999","GP_ID":"189526807","OBJECT_TYPE":"PAYLOAD","BSTAR":"0.00047245000000","MEAN_ELEMENT_THEORY":"SGP4","PERIAPSIS":"390.240","TLE_LINE2":"2 47172  53.0538 173.1213 0000474 100.1627 259.9439 15.58996847 54100","COUNTRY_CODE":"US","LAUNCH_DATE":"2020-11-25","MEAN_ANOMALY":"259.9439","NORAD_CAT_ID":"47172","FILE":"3212485","CLASSIFICATION_TYPE":"U","OBJECT_ID":"2020-088BC","EPHEMERIS_TYPE":"0"},{"REV_AT_EPOCH":"5388","APOAPSIS":"548.419","SEMIMAJOR_AXIS":"6925.427","ELEMENT_SET_NO":"999","PERIOD":"95.594","INCLINATION":"53.0545","TIME_SYSTEM":"UTC","EPOCH":"2021-11-11T22:08:41.234208","RCS_SIZE":"LARGE","CENTER_NAME":"EARTH","MEAN_MOTION_DOT":"-0.00003058","DECAY_DATE":null,"ECCENTRICITY":"0.00016270","OBJECT_NAME":"STARLINK-1890","SITE":"AFETR","RA_OF_ASC_NODE":"188.9824","MEAN_MOTION":"15.06374434","REF_FRAME":"TEME","ARG_OF_PERICENTER":"64.9123","MEAN_MOTION_DDOT":"0.0000000000000","EPHEMERIS_TYPE":"0","OBJECT_ID":"2020-088BD","CLASSIFICATION_TYPE":"U","FILE":"3212485","MEAN_ANOMALY":"295.2034","NORAD_CAT_ID":"47173","LAUNCH_DATE":"2020-11-25","COUNTRY_CODE":"US","TLE_LINE2":"2 47173  53.0545 188.9824 0001627  64.9123 295.2034 15.06374434 53883","PERIAPSIS":"546.165","BSTAR":"-0.00018662000000","MEAN_ELEMENT_THEORY":"SGP4","OBJECT_TYPE":"PAYLOAD","GP_ID":"189527061","TLE_LINE1":"1 47173U 20088BD  21315.92269947 -.00003058  00000-0 -18662-3 0  9994"},{"COUNTRY_CODE":"US","TLE_LINE2":"2 47174  53.0546 188.9471 0001758  60.7694 299.3470 15.06397937 53887","PERIAPSIS":"546.002","BSTAR":"-0.00016540000000","MEAN_ELEMENT_THEORY":"SGP4","OBJECT_TYPE":"PAYLOAD","GP_ID":"189527312","TLE_LINE1":"1 47174U 20088BE  21315.93099391 -.00002744  00000-0 -16540-3 0  9994","EPHEMERIS_TYPE":"0","OBJECT_ID":"2020-088BE","CLASSIFICATION_TYPE":"U","FILE":"3212485","MEAN_ANOMALY":"299.3470","NORAD_CAT_ID":"47174","LAUNCH_DATE":"2020-11-25","CENTER_NAME":"EARTH","MEAN_MOTION_DOT":"-0.00002744","OBJECT_NAME":"STARLINK-1891","DECAY_DATE":null,"ECCENTRICITY":"0.00017580","SITE":"AFETR","RA_OF_ASC_NODE":"188.9471","MEAN_MOTION":"15.06397937","REF_FRAME":"TEME","MEAN_MOTION_DDOT":"0.0000000000000","ARG_OF_PERICENTER":"60.7694","APOAPSIS":"548.437","REV_AT_EPOCH":"5388","ELEMENT_SET_NO":"999","SEMIMAJOR_AXIS":"6925.355","PERIOD":"95.592","TIME_SYSTEM":"UTC","INCLINATION":"53.0546","EPOCH":"2021-11-11T22:20:37.873824","RCS_SIZE":"LARGE"}];
